{
    "links": {
        "self": "http://www.neowsapp.com/rest/v1/neo/3266179?api_key=iIulBulltgU6a56xZRHN4H3l9WmuAYTsLGpBGhQ2"
    },
    "id": "3266179",
    "neo_reference_id": "3266179",
    "name": "(2005 BU1)",
    "designation": "2005 BU1",
    "nasa_jpl_url": "http://ssd.jpl.nasa.gov/sbdb.cgi?sstr=3266179",
    "absolute_magnitude_h": 23.578,
    "estimated_diameter": {
        "kilometers": {
            "estimated_diameter_min": 0.0511628792,
            "estimated_diameter_max": 0.1144036758
        },
        "meters": {
            "estimated_diameter_min": 51.1628792135,
            "estimated_diameter_max": 114.4036758459
        },
        "miles": {
            "estimated_diameter_min": 0.0317911294,
            "estimated_diameter_max": 0.0710871265
        },
        "feet": {
            "estimated_diameter_min": 167.8572206387,
            "estimated_diameter_max": 375.3401558623
        }
    },
    "is_potentially_hazardous_asteroid": false,
    "close_approach_data": [
        {
            "close_approach_date": "2004-08-27",
            "close_approach_date_full": "2004-Aug-27 23:13",
            "epoch_date_close_approach": 1093648380000,
            "relative_velocity": {
                "kilometers_per_second": "10.7484970767",
                "kilometers_per_hour": "38694.5894760556",
                "miles_per_hour": "24043.3131108302"
            },
            "miss_distance": {
                "astronomical": "0.382385456",
                "lunar": "148.747942384",
                "kilometers": "57204049.73657872",
                "miles": "35544948.265157536"
            },
            "orbiting_body": "Earth"
        },
        {
            "close_approach_date": "2005-01-10",
            "close_approach_date_full": "2005-Jan-10 21:06",
            "epoch_date_close_approach": 1105391160000,
            "relative_velocity": {
                "kilometers_per_second": "13.0658159379",
                "kilometers_per_hour": "47036.9373766056",
                "miles_per_hour": "29226.9236715914"
            },
            "miss_distance": {
                "astronomical": "0.0830596285",
                "lunar": "32.3101954865",
                "kilometers": "12425543.506591295",
                "miles": "7720874.713278071"
            },
            "orbiting_body": "Earth"
        }
    ],
    "orbital_data": {
        "orbit_id": "7",
        "orbit_determination_date": "2017-04-06 09:11:33",
        "first_observation_date": "2005-01-17",
        "last_observation_date": "2005-01-18",
        "data_arc_in_days": 1,
        "observations_used": 30,
        "orbit_uncertainty": "8",
        "minimum_orbit_intersection": ".0728469",
        "jupiter_tisserand_invariant": "4.475",
        "epoch_osculation": "2453388.5",
        "eccentricity": ".350159708006",
        "semi_major_axis": "1.465798857957673",
        "inclination": "21.4823567250178",
        "ascending_node_longitude": "117.6314742163419",
        "orbital_period": "648.2014457525451",
        "perihelion_distance": ".9525351578596861",
        "perihelion_argument": "305.159045368857",
        "aphelion_distance": "1.97906255805566",
        "perihelion_time": "2453338.228150389842",
        "mean_anomaly": "27.92012572364094",
        "mean_motion": ".5553829019650663",
        "equinox": "J2000",
        "orbit_class": {
            "orbit_class_type": "APO",
            "orbit_class_description": "Near-Earth asteroid orbits which cross the Earth’s orbit similar to that of 1862 Apollo",
            "orbit_class_range": "a (semi-major axis) > 1.0 AU; q (perihelion) < 1.017 AU"
        }
    },
    "is_sentry_object": false
}